STARLINK-32359          
1 61957U 24209U   25022.91054790  .00002729  00000+0  10424-3 0  9994
2 61957  53.1577 250.5072 0001300  57.7628 302.3499 15.30197063 12028
STARLINK-32566          
1 61958U 24209V   25021.90761828  .00001435  00000+0  60605-4 0  9990
2 61958  53.1619 254.9197 0001307 103.9386 256.1760 15.30178233 11871
STARLINK-32499          
1 61959U 24210A   25023.15577275  .00002742  00000+0  72947-4 0  9997
2 61959  43.0039 340.9488 0000467 246.6205 113.4603 15.40667726 12105
STARLINK-32372          
1 61960U 24210B   25023.15127370  .00000189  00000+0  11777-4 0  9993
2 61960  43.0034 340.9130 0001015 273.7638  86.3103 15.40714133 11902
STARLINK-32452          
1 61961U 24210C   25023.23886352  .00003279  00000+0  85746-4 0  9995
2 61961  43.0067 340.7145 0002898 264.1439  95.9087 15.40695005 12102
STARLINK-32458          
1 61962U 24210D   25022.38453166  .00006175  00000+0  15503-3 0  9995
2 61962  43.0065 345.4829 0001713 285.8366  74.2302 15.40688621 11976
STARLINK-32487          
1 61963U 24210E   25023.22941303  .00001254  00000+0  37289-4 0  9994
2 61963  43.0017 339.7636 0002554 270.5169  89.5395 15.40701351 12116
STARLINK-32513          
1 61964U 24210F   25023.15800929  .00005536  00000+0  13983-3 0  9996
2 61964  43.0045 340.9642 0001312 288.3843  71.6871 15.40669909 12063
STARLINK-32514          
1 61965U 24210G   25023.23438705  .00001841  00000+0  51314-4 0  9991
2 61965  43.0055 340.6769 0001217 273.6572  86.4145 15.40700876 12104
STARLINK-32498          
1 61966U 24210H   25023.16024451  .00003095  00000+0  81381-4 0  9993
2 61966  43.0022 340.9801 0002348 263.0739  96.9850 15.40677931 12073
STARLINK-32518          
1 61967U 24210J   25023.23046992 -.00001623  00000+0 -31602-4 0  9994
2 61967  43.0070 334.3936 0002335 296.6155  63.4462 15.40669321 12042
STARLINK-32471          
1 61968U 24210K   25023.27919166  .00005602  00000+0  14132-3 0  9998
2 61968  43.0019 341.0213 0002089 270.0172  90.0445 15.40687552 12111
STARLINK-32450          
1 61969U 24210L   25023.25007256 -.00002229  00000+0 -46128-4 0  9990
2 61969  43.0005 340.7963 0002028 258.2983 101.7646 15.40683098 11973
STARLINK-32613          
1 61970U 24210M   25023.18253260 -.00001547  00000+0 -29824-4 0  9998
2 61970  43.0029 340.2724 0001349 277.7859  82.2844 15.40662570 12116
STARLINK-32610          
1 61971U 24210N   25023.24511580 -.00001745  00000+0 -34545-4 0  9994
2 61971  43.0036 339.8794 0001635 260.5837  99.4834 15.40671557 12125
STARLINK-32612          
1 61972U 24210P   25023.24284833  .00002961  00000+0  78099-4 0  9994
2 61972  43.0015 339.8663 0001301 268.6874  91.3833 15.40704451 12083
STARLINK-32601          
1 61973U 24210Q   25023.28320076 -.00001750  00000+0 -34666-4 0  9998
2 61973  43.0013 340.1793 0001265 266.9322  93.1389 15.40670480 12089
STARLINK-32593          
1 61974U 24210R   25023.25631355 -.00001188  00000+0 -21204-4 0  9990
2 61974  43.0008 339.9733 0001458 274.4532  85.6158 15.40676415 12089
STARLINK-32586          
1 61975U 24210S   25023.25851890  .00005446  00000+0  13751-3 0  9995
2 61975  43.0067 339.9884 0002767 274.1603  85.8937 15.40707442 12084
STARLINK-32611          
1 61976U 24210T   25023.26526581  .00000451  00000+0  18087-4 0  9992
2 61976  43.0086 340.0448 0002726 272.8187  87.2357 15.40682716 12080
STARLINK-32607          
1 61977U 24210U   25023.30096954  .00000273  00000+0  13821-4 0  9997
2 61977  43.0048 339.4427 0002006 267.7251  92.3376 15.40689820 12131
STARLINK-32606          
1 61978U 24210V   25023.18475880 -.00000384  00000+0 -19265-5 0  9997
2 61978  43.0036 340.2894 0002090 269.9388  90.1229 15.40679338 12074
STARLINK-32578          
1 61979U 24210W   25023.27198571  .00008121  00000+0  20153-3 0  9998
2 61979  43.0005 340.0916 0001550 247.5621 112.5071 15.40688808 12128
STARLINK-32517          
1 61980U 24210X   25023.25182319 -.00003157  00000+0 -68379-4 0  9990
2 61980  43.0042 339.9330 0001409 291.1992  68.8714 15.40681327 12033
STARLINK-32522          
1 61981U 24210Y   25023.26751428  .00007679  00000+0  19103-3 0  9996
2 61981  43.0063 340.0628 0002741 292.5929  67.4637 15.40680280 12086
STARLINK-32560          
1 61982U 24210Z   25023.14679811  .00002352  00000+0  63570-4 0  9990
2 61982  43.0019 340.8716 0001164 272.1668  87.9055 15.40693830 12060
STARLINK-11433 [DTC]    
1 62008U 24213A   25023.08314039  .00005843  00000+0  39694-4 0  9992
2 62008  53.1563 266.2270 0001412 119.5988 240.5174 15.76717458 10415
STARLINK-11262 [DTC]    
1 62009U 24213B   25023.13727264  .00004841  00000+0  33583-4 0  9995
2 62009  53.1580 266.5828 0001377  30.7609 329.3493 15.76714654 10416
STARLINK-11326 [DTC]    
1 62010U 24213C   25021.88369138  .00004584  00000+0  32011-4 0  9998
2 62010  53.1561 272.2544 0001134  85.9252 274.1899 15.76714688 11227
STARLINK-11330 [DTC]    
1 62011U 24213D   25023.05393443  .00001672  00000+0  14206-4 0  9997
2 62011  53.1560 266.7645 0000781  68.7610 291.3494 15.76727179 10401
STARLINK-11363 [DTC]    
1 62012U 24213E   25021.96660655  .00000391  00000+0  63866-5 0  9992
2 62012  53.1556 272.0668 0000910  86.7754 273.3371 15.76728916 10230
STARLINK-11377 [DTC]    
1 62013U 24213F   25022.94659660  .00001308  00000+0  11983-4 0  9997
2 62013  53.1549 266.7975 0000846  94.5034 265.6083 15.76731383 10393
STARLINK-11385 [DTC]    
1 62014U 24213G   25021.91829039  .00004897  00000+0  33916-4 0  9999
2 62014  53.1564 272.4849 0001162  91.7981 268.3173 15.76717845 11227
STARLINK-11396 [DTC]    
1 62015U 24213H   25022.95147552  .00001312  00000+0  12009-4 0  9997
2 62015  53.1569 266.8195 0000971  74.2305 285.8823 15.76734682 10398
STARLINK-11393 [DTC]    
1 62016U 24213J   25021.95683863 -.00002607  00000+0 -11937-4 0  9996
2 62016  53.1563 272.0035 0001332 106.6057 253.5110 15.76720889 10239
STARLINK-11343 [DTC]    
1 62017U 24213K   25022.93734264  .00008370  00000+0  55065-4 0  9999
2 62017  53.1565 267.4649 0001375  89.7894 270.3284 15.76738282 10389
STARLINK-11411 [DTC]    
1 62018U 24213L   25021.92805266  .00003016  00000+0  22433-4 0  9994
2 62018  53.1559 272.5483 0001106 107.1939 252.9203 15.76711097 10228
STARLINK-11404 [DTC]    
1 62019U 24213M   25021.96172702  .00009244  00000+0  60412-4 0  9999
2 62019  53.1551 272.0359 0001115 103.1974 256.9171 15.76729551 10236
STARLINK-11378 [DTC]    
1 62020U 24213N   25023.09290448 -.00000147  00000+0  31055-5 0  9991
2 62020  53.1575 266.2867 0001380 108.8443 251.2727 15.76725890 10417
STARLINK-32520          
1 62021U 24213P   25023.11707252 -.00001059  00000+0 -16532-4 0  9997
2 62021  53.1594 278.7913 0000553 114.1465 245.9598 15.39593869 10249
STARLINK-32539          
1 62022U 24213Q   25023.09219401  .00000881  00000+0  32010-4 0  9998
2 62022  53.1601 271.3515 0000917  93.6882 266.4228 15.39610821 10341
STARLINK-32334          
1 62023U 24213R   25022.97794712  .00004882  00000+0  13203-3 0  9995
2 62023  53.1586 279.3447 0001164  89.1709 270.9429 15.39603353 10221
STARLINK-32504          
1 62024U 24213S   25023.10321779  .00003707  00000+0  10263-3 0  9999
2 62024  53.1604 279.4258 0000472  26.1114 333.9914 15.39613004 10230
STARLINK-32493          
1 62025U 24213T   25023.00581143  .00001800  00000+0  54989-4 0  9998
2 62025  53.1588 279.5240 0001171  77.8145 282.2991 15.39610740 10222
STARLINK-32561          
1 62026U 24213U   25023.00116453 -.00004116  00000+0 -93009-4 0  9998
2 62026  53.1567 279.4965 0001036 106.0795 254.0324 15.39610012 10228
STARLINK-32512          
1 62027U 24213V   25023.12635248  .00001312  00000+0  42817-4 0  9994
2 62027  53.1583 278.8482 0001557 110.3532 249.7640 15.39601475 10246
STARLINK-32637          
1 62032U 24216A   25023.17888335  .00004383  00000+0  11218-3 0  9996
2 62032  42.9955  72.8161 0000586 168.2570 191.8300 15.40680813 10887
STARLINK-32582          
1 62033U 24216B   25023.53425020  .00002342  00000+0  63332-4 0  9993
2 62033  43.0069  70.3251 0002619 269.1321  90.9235 15.40691549 10944
STARLINK-32615          
1 62034U 24216C   25023.48512774  .00013009  00000+0  31878-3 0  9992
2 62034  42.9980  70.8158 0000661 312.1988  47.8812 15.40638786  9774
STARLINK-32592          
1 62035U 24216D   25023.13146499  .00005911  00000+0  14859-3 0  9995
2 62035  42.9995  72.4543 0001197 247.4503 112.6227 15.40714082 10895
STARLINK-32225          
1 62036U 24216E   25023.55889805  .00000062  00000+0  87413-5 0  9997
2 62036  43.0024  70.5105 0001496 265.9554  94.1131 15.40696815 11013
STARLINK-32595          
1 62037U 24216F   25023.13855476  .00003354  00000+0  87540-4 0  9996
2 62037  43.0025  72.5108 0002039 255.6529 104.4101 15.40692845 10898
STARLINK-32477          
1 62038U 24216G   25023.50975091  .00000216  00000+0  12438-4 0  9992
2 62038  43.0022  71.0058 0001783 253.8034 106.2626 15.40691223  9776
STARLINK-32480          
1 62039U 24216H   25023.47838257 -.00000151  00000+0  36722-5 0  9993
2 62039  43.0072  70.7685 0001985 281.5445  78.5189 15.40703301  9778
STARLINK-32510          
1 62040U 24216J   25023.50700157  .00006600  00000+0  16514-3 0  9995
2 62040  43.0011  70.1078 0001562 249.6786 110.3903 15.40695773 10940
STARLINK-32456          
1 62041U 24216K   25023.48957944 -.00001916  00000+0 -38595-4 0  9992
2 62041  43.0063  70.8490 0002048 209.8915 150.1825 15.40708391 10930
STARLINK-32509          
1 62042U 24216L   25023.49855195  .00001310  00000+0  38640-4 0  9996
2 62042  43.0037  70.9181 0001893 269.8902  90.1738 15.40681700 10939
STARLINK-32491          
1 62043U 24216M   25023.51372912  .00001577  00000+0  45020-4 0  9996
2 62043  43.0019  70.1650 0002625 283.3485  76.7079 15.40702336 10942
STARLINK-32577          
1 62044U 24216N   25023.46494444  .00001906  00000+0  52891-4 0  9996
2 62044  43.0007  70.6592 0001383 257.3666 102.7036 15.40699490 10941
